[
    {
        "Altitude(m)": 612513.941080255,
        "Argument of Periapsis(deg)": 0.0,
        "Eccentricity": 0.0,
        "Inclination(deg)": 60.0,
        "Latitude(deg)": -28.135993901869462,
        "Longitude(deg)": -17.086831379875882,
        "Mean Anomaly(deg)": -147.2727,
        "RAAN(deg)": 245.0,
        "Satellite Name": "Test1 1091",
        "Satellite Number": 1091,
        "Semi-Major Axis(m)": 6980739.136638005,
        "Time(s)": 0
    },
    {
        "Altitude(m)": 612708.3089684341,
        "Argument of Periapsis(deg)": 0.00010418945913296404,
        "Eccentricity": 0.0,
        "Inclination(deg)": 60.0,
        "Latitude(deg)": -28.64773242510396,
        "Longitude(deg)": -16.729599741379136,
        "Mean Anomaly(deg)": -146.65259385453817,
        "RAAN(deg)": 244.99957995086027,
        "Satellite Name": "Test1 1091",
        "Satellite Number": 1091,
        "Semi-Major Axis(m)": 6980739.136638005,
        "Time(s)": 10
    }
]